STARLINK-31857          
1 59843U 24097J   26067.98815413 -.00000913  00000+0 -23673-4 0  9990
2 59843  43.0010 277.9601 0001485 256.6613 103.4073 15.27571569101815
2025-313BE              
1 67482U 25313BE  26068.69721505  .00077178  00000+0  26504-2 0  9996
2 67482  97.3989 145.3568 0007208 335.3714  24.7181 15.29801687  7972
